OBJECT_NAME,OBJECT_ID,EPOCH,MEAN_MOTION,ECCENTRICITY,INCLINATION,RA_OF_ASC_NODE,ARG_OF_PERICENTER,MEAN_ANOMALY,EPHEMERIS_TYPE,CLASSIFICATION_TYPE,NORAD_CAT_ID,ELEMENT_SET_NO,REV_AT_EPOCH,BSTAR,MEAN_MOTION_DOT,MEAN_MOTION_DDOT
HAWK-5A,2022-057AB,2026-07-22T05:56:25.907712,15.52502529,.00029202,97.6636,4.3983,303.1478,56.9494,0,U,52757,999,23178,.32081569E-3,.19569E-3,0
HAWK-6B,2023-011A,2026-07-22T12:36:22.459680,15.23199719,.00045803,40.4983,145.9092,277.3330,82.6959,0,U,55324,999,19323,.17241176E-3,.3971E-4,0
HAWK-6C,2023-011C,2026-07-22T12:35:27.830688,15.23198956,.00050584,40.4971,142.7480,272.3999,87.6231,0,U,55326,999,19324,.16955213E-3,.3901E-4,0
HAWK-6A,2023-011D,2026-07-21T20:51:23.097312,15.23195538,.00047868,40.4981,148.2012,266.0368,93.9894,0,U,55327,999,19314,.18251546E-3,.4214E-4,0
HAWK-7A,2023-054P,2026-07-22T13:11:41.570880,15.27686292,.0000942,97.2651,89.9876,272.4559,87.6573,0,U,56191,999,18242,.20326057E-3,.5427E-4,0
HAWK-7B,2023-054R,2026-07-22T14:45:54.849024,15.27688941,.00005075,97.2680,88.3275,356.0011,4.1225,0,U,56193,999,18243,.20446919E-3,.546E-4,0
HAWK-7C,2023-054Y,2026-07-22T13:11:24.620928,15.27686732,.000031,97.2655,89.0215,267.9693,92.1512,0,U,56200,999,18242,.19996991E-3,.5338E-4,0
