{"epoch":1784762836,"count":18316,"objects":[{"id":"52757","name":"HAWK-5A","type":"PAYLOAD","l1":"1 52757U 22057AB  26203.24752208  .00019569  00000-0  32082-3 0  9993","l2":"2 52757  97.6636   4.3983 0002920 303.1478  56.9494 15.52502529231785"},{"id":"55324","name":"HAWK-6B","type":"PAYLOAD","l1":"1 55324U 23011A   26203.52525995  .00003971  00000-0  17241-3 0  9999","l2":"2 55324  40.4983 145.9092 0004580 277.3330  82.6959 15.23199719193235"},{"id":"55326","name":"HAWK-6C","type":"PAYLOAD","l1":"1 55326U 23011C   26203.52462767  .00003901  00000-0  16955-3 0  9992","l2":"2 55326  40.4971 142.7480 0005058 272.3999  87.6231 15.23198956193248"},{"id":"55327","name":"HAWK-6A","type":"PAYLOAD","l1":"1 55327U 23011D   26202.86901733  .00004214  00000-0  18252-3 0  9990","l2":"2 55327  40.4981 148.2012 0004787 266.0368  93.9894 15.23195538193147"},{"id":"56191","name":"HAWK-7A","type":"PAYLOAD","l1":"1 56191U 23054P   26203.54978670  .00005427  00000-0  20326-3 0  9999","l2":"2 56191  97.2651  89.9876 0000942 272.4559  87.6573 15.27686292182421"},{"id":"56193","name":"HAWK-7B","type":"PAYLOAD","l1":"1 56193U 23054R   26203.61521816  .00005460  00000-0  20447-3 0  9996","l2":"2 56193  97.2680  88.3275 0000507 356.0011   4.1225 15.27688941182432"},{"id":"56200","name":"HAWK-7C","type":"PAYLOAD","l1":"1 56200U 23054Y   26203.54959052  .00005338  00000-0  19997-3 0  9996","l2":"2 56200  97.2655  89.0215 0000310 267.9693  92.1512 15.27686732182424"}]}